start=new Date('2021-10-21T00:00:00.000Z').valueOf();
sats=[{"OBJECT_NAME":"STARLINK-2361","APOAPSIS":"548.278","EPOCH":"2021-10-20T20:41:45.414816","ELEMENT_SET_NO":"999","ECCENTRICITY":"0.00015730","MEAN_MOTION_DDOT":"0.0000000000000","OBJECT_TYPE":"PAYLOAD","NORAD_CAT_ID":"47901","FILE":"3175135","MEAN_ELEMENT_THEORY":"SGP4","TIME_SYSTEM":"UTC","LAUNCH_DATE":"2021-03-14","RA_OF_ASC_NODE":"248.0081","SITE":"AFETR","REV_AT_EPOCH":"3504","CLASSIFICATION_TYPE":"U","TLE_LINE1":"1 47901U 21021AT  21293.86233119  .00000144  00000-0  28575-4 0  9997","MEAN_ANOMALY":"287.8219","RCS_SIZE":"LARGE","BSTAR":"0.00002857500000","PERIAPSIS":"546.099","GP_ID":"187756245","EPHEMERIS_TYPE":"0","COUNTRY_CODE":"US","MEAN_MOTION_DOT":"0.00000144","ARG_OF_PERICENTER":"72.2942","SEMIMAJOR_AXIS":"6925.324","MEAN_MOTION":"15.06408169","OBJECT_ID":"2021-021AT","PERIOD":"95.592","CENTER_NAME":"EARTH","TLE_LINE2":"2 47901  53.0518 248.0081 0001573  72.2942 287.8219 15.06408169 35049","REF_FRAME":"TEME","DECAY_DATE":null,"INCLINATION":"53.0518"},{"DECAY_DATE":null,"INCLINATION":"53.0546","TLE_LINE2":"2 47902  53.0546 268.9273 0001517  66.9867 293.1281 15.06389077 34841","REF_FRAME":"TEME","CENTER_NAME":"EARTH","PERIOD":"95.593","OBJECT_ID":"2021-021AU","MEAN_MOTION":"15.06389077","SEMIMAJOR_AXIS":"6925.382","ARG_OF_PERICENTER":"66.9867","MEAN_MOTION_DOT":"-0.00000386","COUNTRY_CODE":"US","PERIAPSIS":"546.196","EPHEMERIS_TYPE":"0","GP_ID":"187756495","BSTAR":"-0.00000703880000","RCS_SIZE":"LARGE","MEAN_ANOMALY":"293.1281","TLE_LINE1":"1 47902U 21021AU  21293.65501416 -.00000386  00000-0 -70388-5 0  9993","REV_AT_EPOCH":"3484","CLASSIFICATION_TYPE":"U","SITE":"AFETR","TIME_SYSTEM":"UTC","LAUNCH_DATE":"2021-03-14","RA_OF_ASC_NODE":"268.9273","MEAN_ELEMENT_THEORY":"SGP4","FILE":"3175135","OBJECT_TYPE":"PAYLOAD","NORAD_CAT_ID":"47902","ELEMENT_SET_NO":"999","MEAN_MOTION_DDOT":"0.0000000000000","ECCENTRICITY":"0.00015170","OBJECT_NAME":"STARLINK-2362","APOAPSIS":"548.298","EPOCH":"2021-10-20T15:43:13.223424"},{"SEMIMAJOR_AXIS":"6925.324","ARG_OF_PERICENTER":"64.6004","COUNTRY_CODE":"US","MEAN_MOTION_DOT":"0.00001350","PERIAPSIS":"546.118","GP_ID":"187756746","EPHEMERIS_TYPE":"0","TLE_LINE2":"2 47903  53.0552 249.1293 0001547  64.6004 295.5145 15.06407981 35350","REF_FRAME":"TEME","DECAY_DATE":null,"INCLINATION":"53.0552","CENTER_NAME":"EARTH","PERIOD":"95.592","MEAN_MOTION":"15.06407981","OBJECT_ID":"2021-021AV","FILE":"3175135","MEAN_ELEMENT_THEORY":"SGP4","OBJECT_TYPE":"PAYLOAD","NORAD_CAT_ID":"47903","OBJECT_NAME":"STARLINK-2363","APOAPSIS":"548.260","EPOCH":"2021-10-20T14:42:10.521792","ELEMENT_SET_NO":"999","ECCENTRICITY":"0.00015470","MEAN_MOTION_DDOT":"0.0000000000000","RCS_SIZE":"LARGE","BSTAR":"0.00010948000000","TLE_LINE1":"1 47903U 21021AV  21293.61262178  .00001350  00000-0  10948-3 0  9993","MEAN_ANOMALY":"295.5145","SITE":"AFETR","CLASSIFICATION_TYPE":"U","REV_AT_EPOCH":"3535","TIME_SYSTEM":"UTC","LAUNCH_DATE":"2021-03-14","RA_OF_ASC_NODE":"249.1293"},{"OBJECT_NAME":"STARLINK-2364","APOAPSIS":"548.220","EPOCH":"2021-10-20T14:36:52.808256","ELEMENT_SET_NO":"999","ECCENTRICITY":"0.00014280","MEAN_MOTION_DDOT":"0.0000000000000","FILE":"3175135","MEAN_ELEMENT_THEORY":"SGP4","OBJECT_TYPE":"PAYLOAD","NORAD_CAT_ID":"47904","SITE":"AFETR","REV_AT_EPOCH":"3499","CLASSIFICATION_TYPE":"U","TIME_SYSTEM":"UTC","RA_OF_ASC_NODE":"249.1399","LAUNCH_DATE":"2021-03-14","RCS_SIZE":"LARGE","BSTAR":"-0.00012005000000","TLE_LINE1":"1 47904U 21021AW  21293.60894454 -.00002069  00000-0 -12005-3 0  9997","MEAN_ANOMALY":"290.6217","COUNTRY_CODE":"US","MEAN_MOTION_DOT":"-0.00002069","PERIAPSIS":"546.242","EPHEMERIS_TYPE":"0","GP_ID":"187756986","SEMIMAJOR_AXIS":"6925.366","ARG_OF_PERICENTER":"69.4925","PERIOD":"95.593","CENTER_NAME":"EARTH","MEAN_MOTION":"15.06394264","OBJECT_ID":"2021-021AW","TLE_LINE2":"2 47904  53.0556 249.1399 0001428  69.4925 290.6217 15.06394264 34999","REF_FRAME":"TEME","DECAY_DATE":null,"INCLINATION":"53.0556"},{"REF_FRAME":"TEME","TLE_LINE2":"2 47905  53.0552 247.9672 0001351  76.2075 283.9064 15.06402339 35161","INCLINATION":"53.0552","DECAY_DATE":null,"MEAN_MOTION":"15.06402339","OBJECT_ID":"2021-021AX","PERIOD":"95.592","CENTER_NAME":"EARTH","ARG_OF_PERICENTER":"76.2075","SEMIMAJOR_AXIS":"6925.341","GP_ID":"187755745","EPHEMERIS_TYPE":"0","PERIAPSIS":"546.271","COUNTRY_CODE":"US","MEAN_MOTION_DOT":"-0.00000956","TLE_LINE1":"1 47905U 21021AX  21293.87064382 -.00000956  00000-0 -45294-4 0  9996","MEAN_ANOMALY":"283.9064","RCS_SIZE":"LARGE","BSTAR":"-0.00004529400000","RA_OF_ASC_NODE":"247.9672","LAUNCH_DATE":"2021-03-14","TIME_SYSTEM":"UTC","SITE":"AFETR","CLASSIFICATION_TYPE":"U","REV_AT_EPOCH":"3516","NORAD_CAT_ID":"47905","OBJECT_TYPE":"PAYLOAD","FILE":"3175135","MEAN_ELEMENT_THEORY":"SGP4","EPOCH":"2021-10-20T20:53:43.626048","OBJECT_NAME":"STARLINK-2365","APOAPSIS":"548.142","MEAN_MOTION_DDOT":"0.0000000000000","ECCENTRICITY":"0.00013510","ELEMENT_SET_NO":"999"},{"OBJECT_ID":"2021-021AY","MEAN_MOTION":"15.71670424","PERIOD":"91.622","CENTER_NAME":"EARTH","INCLINATION":"53.0517","DECAY_DATE":null,"REF_FRAME":"TEME","TLE_LINE2":"2 47906  53.0517 210.3034 0007972 290.5264  69.4897 15.71670424 35069","EPHEMERIS_TYPE":"0","GP_ID":"187721098","PERIAPSIS":"348.758","MEAN_MOTION_DOT":"0.00047117","COUNTRY_CODE":"US","ARG_OF_PERICENTER":"290.5264","SEMIMAJOR_AXIS":"6732.260","LAUNCH_DATE":"2021-03-14","RA_OF_ASC_NODE":"210.3034","TIME_SYSTEM":"UTC","REV_AT_EPOCH":"3506","CLASSIFICATION_TYPE":"U","SITE":"AFETR","MEAN_ANOMALY":"69.4897","TLE_LINE1":"1 47906U 21021AY  21293.49191251  .00047117  00000-0  36025-3 0  9990","BSTAR":"0.00036025000000","RCS_SIZE":"LARGE","ECCENTRICITY":"0.00079720","MEAN_MOTION_DDOT":"0.0000000000000","ELEMENT_SET_NO":"999","EPOCH":"2021-10-20T11:48:21.240864","APOAPSIS":"359.492","OBJECT_NAME":"STARLINK-2366","NORAD_CAT_ID":"47906","OBJECT_TYPE":"PAYLOAD","MEAN_ELEMENT_THEORY":"SGP4","FILE":"3174563"},{"APOAPSIS":"548.147","OBJECT_NAME":"STARLINK-2367","EPOCH":"2021-10-20T13:09:17.684640","ELEMENT_SET_NO":"999","MEAN_MOTION_DDOT":"0.0000000000000","ECCENTRICITY":"0.00014100","OBJECT_TYPE":"PAYLOAD","NORAD_CAT_ID":"47907","FILE":"3174382","MEAN_ELEMENT_THEORY":"SGP4","TIME_SYSTEM":"UTC","RA_OF_ASC_NODE":"269.4183","LAUNCH_DATE":"2021-03-14","SITE":"AFETR","REV_AT_EPOCH":"3468","CLASSIFICATION_TYPE":"U","TLE_LINE1":"1 47907U 21021AZ  21293.54812135 -.00000716  00000-0 -29158-4 0  9994","MEAN_ANOMALY":"285.1966","RCS_SIZE":"LARGE","BSTAR":"-0.00002915800000","PERIAPSIS":"546.194","EPHEMERIS_TYPE":"0","GP_ID":"187715828","COUNTRY_CODE":"US","MEAN_MOTION_DOT":"-0.00000716","ARG_OF_PERICENTER":"74.9179","SEMIMAJOR_AXIS":"6925.305","MEAN_MOTION":"15.06414169","OBJECT_ID":"2021-021AZ","CENTER_NAME":"EARTH","PERIOD":"95.591","TLE_LINE2":"2 47907  53.0565 269.4183 0001410  74.9179 285.1966 15.06414169 34684","REF_FRAME":"TEME","DECAY_DATE":null,"INCLINATION":"53.0565"},{"ARG_OF_PERICENTER":"71.3714","SEMIMAJOR_AXIS":"6925.350","PERIAPSIS":"546.326","EPHEMERIS_TYPE":"0","GP_ID":"187716079","MEAN_MOTION_DOT":"-0.00000153","COUNTRY_CODE":"US","DECAY_DATE":null,"INCLINATION":"53.0557","TLE_LINE2":"2 47908  53.0557 270.2750 0001284  71.3714 288.7415 15.06399583 34681","REF_FRAME":"TEME","OBJECT_ID":"2021-021BA","MEAN_MOTION":"15.06399583","CENTER_NAME":"EARTH","PERIOD":"95.592","OBJECT_TYPE":"PAYLOAD","NORAD_CAT_ID":"47908","MEAN_ELEMENT_THEORY":"SGP4","FILE":"3174382","ELEMENT_SET_NO":"999","ECCENTRICITY":"0.00012840","MEAN_MOTION_DDOT":"0.0000000000000","APOAPSIS":"548.104","OBJECT_NAME":"STARLINK-2368","EPOCH":"2021-10-20T08:33:18.886176","MEAN_ANOMALY":"288.7415","TLE_LINE1":"1 47908U 21021BA  21293.35646859 -.00000153  00000-0  85875-5 0  9995","BSTAR":"0.00000858750000","RCS_SIZE":"LARGE","TIME_SYSTEM":"UTC","LAUNCH_DATE":"2021-03-14","RA_OF_ASC_NODE":"270.2750","REV_AT_EPOCH":"3468","CLASSIFICATION_TYPE":"U","SITE":"AFETR"},{"PERIAPSIS":"546.413","GP_ID":"187756246","EPHEMERIS_TYPE":"0","MEAN_MOTION_DOT":"-0.00000109","COUNTRY_CODE":"US","ARG_OF_PERICENTER":"85.8471","SEMIMAJOR_AXIS":"6925.372","OBJECT_ID":"2021-021BB","MEAN_MOTION":"15.06392487","CENTER_NAME":"EARTH","PERIOD":"95.593","DECAY_DATE":null,"INCLINATION":"53.0556","TLE_LINE2":"2 47909  53.0556 259.0153 0001189  85.8471 274.2654 15.06392487 35038","REF_FRAME":"TEME","ELEMENT_SET_NO":"999","MEAN_MOTION_DDOT":"0.0000000000000","ECCENTRICITY":"0.00011890","OBJECT_NAME":"STARLINK-2369","APOAPSIS":"548.060","EPOCH":"2021-10-20T15:18:01.102464","OBJECT_TYPE":"PAYLOAD","NORAD_CAT_ID":"47909","MEAN_ELEMENT_THEORY":"SGP4","FILE":"3175135","TIME_SYSTEM":"UTC","RA_OF_ASC_NODE":"259.0153","LAUNCH_DATE":"2021-03-14","REV_AT_EPOCH":"3503","CLASSIFICATION_TYPE":"U","SITE":"AFETR","MEAN_ANOMALY":"274.2654","TLE_LINE1":"1 47909U 21021BB  21293.63751276 -.00000109  00000-0  11598-4 0  9998","BSTAR":"0.00001159800000","RCS_SIZE":"LARGE"},{"ARG_OF_PERICENTER":"67.0611","SEMIMAJOR_AXIS":"6925.341","PERIAPSIS":"546.143","EPHEMERIS_TYPE":"0","GP_ID":"187756496","MEAN_MOTION_DOT":"-0.00001809","COUNTRY_CODE":"US","DECAY_DATE":null,"INCLINATION":"53.0550","TLE_LINE2":"2 47910  53.0550 259.1445 0001536  67.0611 293.0540 15.06402345 34883","REF_FRAME":"TEME","OBJECT_ID":"2021-021BC","MEAN_MOTION":"15.06402345","CENTER_NAME":"EARTH","PERIOD":"95.592","OBJECT_TYPE":"PAYLOAD","NORAD_CAT_ID":"47910","MEAN_ELEMENT_THEORY":"SGP4","FILE":"3175135","ELEMENT_SET_NO":"999","ECCENTRICITY":"0.00015360","MEAN_MOTION_DDOT":"0.0000000000000","OBJECT_NAME":"STARLINK-2370","APOAPSIS":"548.270","EPOCH":"2021-10-20T14:34:11.070912","MEAN_ANOMALY":"293.0540","TLE_LINE1":"1 47910U 21021BC  21293.60707258 -.00001809  00000-0 -10257-3 0  9997","BSTAR":"-0.00010257000000","RCS_SIZE":"LARGE","TIME_SYSTEM":"UTC","LAUNCH_DATE":"2021-03-14","RA_OF_ASC_NODE":"259.1445","REV_AT_EPOCH":"3488","CLASSIFICATION_TYPE":"U","SITE":"AFETR"}];
